[{"OBJECT_NAME":"TIANTONG-1 1","OBJECT_ID":"2016-048A","EPOCH":"2026-04-03T16:43:59.772576","MEAN_MOTION":1.00272557,"ECCENTRICITY":0.00064068,"INCLINATION":3.7083,"RA_OF_ASC_NODE":42.7354,"ARG_OF_PERICENTER":10.6542,"MEAN_ANOMALY":131.042,"EPHEMERIS_TYPE":0,"CLASSIFICATION_TYPE":"U","NORAD_CAT_ID":41725,"ELEMENT_SET_NO":999,"REV_AT_EPOCH":3552,"BSTAR":0,"MEAN_MOTION_DOT":-3.18e-6,"MEAN_MOTION_DDOT":0},{"OBJECT_NAME":"JCSAT-16","OBJECT_ID":"2016-050A","EPOCH":"2026-04-05T06:35:06.145152","MEAN_MOTION":1.00271296,"ECCENTRICITY":0.00012101,"INCLINATION":0.017,"RA_OF_ASC_NODE":188.9531,"ARG_OF_PERICENTER":209.3633,"MEAN_ANOMALY":37.9768,"EPHEMERIS_TYPE":0,"CLASSIFICATION_TYPE":"U","NORAD_CAT_ID":41729,"ELEMENT_SET_NO":999,"REV_AT_EPOCH":3533,"BSTAR":0,"MEAN_MOTION_DOT":-2.5e-6,"MEAN_MOTION_DDOT":0},{"OBJECT_NAME":"USA 270","OBJECT_ID":"2016-052A","EPOCH":"2026-04-03T08:31:32.856096","MEAN_MOTION":1.00334013,"ECCENTRICITY":0.000383,"INCLINATION":4.0059,"RA_OF_ASC_NODE":78.1231,"ARG_OF_PERICENTER":309.4269,"MEAN_ANOMALY":107.269,"EPHEMERIS_TYPE":0,"CLASSIFICATION_TYPE":"U","NORAD_CAT_ID":41744,"ELEMENT_SET_NO":999,"REV_AT_EPOCH":2738,"BSTAR":0,"MEAN_MOTION_DOT":2.9e-7,"MEAN_MOTION_DDOT":0},{"OBJECT_NAME":"USA 271","OBJECT_ID":"2016-052B","EPOCH":"2026-04-03T08:17:11.732352","MEAN_MOTION":1.00250962,"ECCENTRICITY":0.0007625,"INCLINATION":3.9783,"RA_OF_ASC_NODE":78.1909,"ARG_OF_PERICENTER":147.5825,"MEAN_ANOMALY":215.0428,"EPHEMERIS_TYPE":0,"CLASSIFICATION_TYPE":"U","NORAD_CAT_ID":41745,"ELEMENT_SET_NO":999,"REV_AT_EPOCH":2717,"BSTAR":0,"MEAN_MOTION_DOT":-3.56e-6,"MEAN_MOTION_DDOT":0},{"OBJECT_NAME":"INTELSAT 36 (IS-36)","OBJECT_ID":"2016-053A","EPOCH":"2026-04-05T02:48:13.162464","MEAN_MOTION":1.00267841,"ECCENTRICITY":0.00011356,"INCLINATION":0.0095,"RA_OF_ASC_NODE":237.1916,"ARG_OF_PERICENTER":91.4784,"MEAN_ANOMALY":335.3094,"EPHEMERIS_TYPE":0,"CLASSIFICATION_TYPE":"U","NORAD_CAT_ID":41747,"ELEMENT_SET_NO":999,"REV_AT_EPOCH":3522,"BSTAR":0,"MEAN_MOTION_DOT":0,"MEAN_MOTION_DDOT":0},{"OBJECT_NAME":"INTELSAT 33E (IS-33E)","OBJECT_ID":"2016-053B","EPOCH":"2026-04-05T02:50:05.482464","MEAN_MOTION":1.00161768,"ECCENTRICITY":0.00236328,"INCLINATION":1.386,"RA_OF_ASC_NODE":85.235,"ARG_OF_PERICENTER":191.1577,"MEAN_ANOMALY":34.5025,"EPHEMERIS_TYPE":0,"CLASSIFICATION_TYPE":"U","NORAD_CAT_ID":41748,"ELEMENT_SET_NO":999,"REV_AT_EPOCH":3551,"BSTAR":0,"MEAN_MOTION_DOT":-6.0e-7,"MEAN_MOTION_DDOT":0},{"OBJECT_NAME":"INSAT-3DR","OBJECT_ID":"2016-054A","EPOCH":"2026-04-05T02:49:43.018464","MEAN_MOTION":1.00273784,"ECCENTRICITY":0.00120863,"INCLINATION":0.1295,"RA_OF_ASC_NODE":86.7921,"ARG_OF_PERICENTER":196.6004,"MEAN_ANOMALY":26.4708,"EPHEMERIS_TYPE":0,"CLASSIFICATION_TYPE":"U","NORAD_CAT_ID":41752,"ELEMENT_SET_NO":999,"REV_AT_EPOCH":3508,"BSTAR":0,"MEAN_MOTION_DOT":-7.6e-7,"MEAN_MOTION_DDOT":0},{"OBJECT_NAME":"GSAT-18","OBJECT_ID":"2016-060A","EPOCH":"2026-04-05T02:49:43.018464","MEAN_MOTION":1.00272968,"ECCENTRICITY":0.00046541,"INCLINATION":0.0492,"RA_OF_ASC_NODE":82.5162,"ARG_OF_PERICENTER":328.8624,"MEAN_ANOMALY":258.4329,"EPHEMERIS_TYPE":0,"CLASSIFICATION_TYPE":"U","NORAD_CAT_ID":41793,"ELEMENT_SET_NO":999,"REV_AT_EPOCH":3479,"BSTAR":0,"MEAN_MOTION_DOT":-7.6e-7,"MEAN_MOTION_DDOT":0},{"OBJECT_NAME":"SKY MUSTER 2 (NBN1B)","OBJECT_ID":"2016-060B","EPOCH":"2026-04-05T06:35:21.120864","MEAN_MOTION":1.00272245,"ECCENTRICITY":0.00015655,"INCLINATION":0.0134,"RA_OF_ASC_NODE":246.6171,"ARG_OF_PERICENTER":129.2893,"MEAN_ANOMALY":61.3146,"EPHEMERIS_TYPE":0,"CLASSIFICATION_TYPE":"U","NORAD_CAT_ID":41794,"ELEMENT_SET_NO":999,"REV_AT_EPOCH":3478,"BSTAR":0,"MEAN_MOTION_DOT":-2.43e-6,"MEAN_MOTION_DDOT":0},{"OBJECT_NAME":"HIMAWARI-9","OBJECT_ID":"2016-064A","EPOCH":"2026-04-05T06:34:06.239712","MEAN_MOTION":1.00271058,"ECCENTRICITY":0.00012526,"INCLINATION":0.0486,"RA_OF_ASC_NODE":108.0081,"ARG_OF_PERICENTER":290.7832,"MEAN_ANOMALY":34.0836,"EPHEMERIS_TYPE":0,"CLASSIFICATION_TYPE":"U","NORAD_CAT_ID":41836,"ELEMENT_SET_NO":999,"REV_AT_EPOCH":3447,"BSTAR":0,"MEAN_MOTION_DOT":-2.74e-6,"MEAN_MOTION_DDOT":0},{"OBJECT_NAME":"SHIJIAN-17 (SJ-17)","OBJECT_ID":"2016-065A","EPOCH":"2026-04-04T19:33:32.239872","MEAN_MOTION":0.99869998,"ECCENTRICITY":0.0001543,"INCLINATION":5.5672,"RA_OF_ASC_NODE":73.4719,"ARG_OF_PERICENTER":340.2857,"MEAN_ANOMALY":57.3515,"EPHEMERIS_TYPE":0,"CLASSIFICATION_TYPE":"U","NORAD_CAT_ID":41838,"ELEMENT_SET_NO":999,"REV_AT_EPOCH":3447,"BSTAR":0,"MEAN_MOTION_DOT":-1.8e-6,"MEAN_MOTION_DDOT":0},{"OBJECT_NAME":"GOES 16","OBJECT_ID":"2016-071A","EPOCH":"2026-04-05T03:46:38.460576","MEAN_MOTION":1.00272286,"ECCENTRICITY":0.00018268,"INCLINATION":0.1747,"RA_OF_ASC_NODE":85.2956,"ARG_OF_PERICENTER":247.2132,"MEAN_ANOMALY":172.9164,"EPHEMERIS_TYPE":0,"CLASSIFICATION_TYPE":"U","NORAD_CAT_ID":41866,"ELEMENT_SET_NO":999,"REV_AT_EPOCH":3437,"BSTAR":0,"MEAN_MOTION_DOT":-9.0e-7,"MEAN_MOTION_DDOT":0},{"OBJECT_NAME":"TIANLIAN 1-04","OBJECT_ID":"2016-072A","EPOCH":"2026-04-04T15:20:21.538752","MEAN_MOTION":1.0027366,"ECCENTRICITY":0.00400139,"INCLINATION":0.6777,"RA_OF_ASC_NODE":83.2511,"ARG_OF_PERICENTER":93.8105,"MEAN_ANOMALY":62.7584,"EPHEMERIS_TYPE":0,"CLASSIFICATION_TYPE":"U","NORAD_CAT_ID":41869,"ELEMENT_SET_NO":999,"REV_AT_EPOCH":3456,"BSTAR":0,"MEAN_MOTION_DOT":3.2e-7,"MEAN_MOTION_DDOT":0},{"OBJECT_NAME":"WGS F8 (USA 272)","OBJECT_ID":"2016-075A","EPOCH":"2026-04-05T05:19:38.459424","MEAN_MOTION":1.00270829,"ECCENTRICITY":6.84e-5,"INCLINATION":0.0151,"RA_OF_ASC_NODE":213.0621,"ARG_OF_PERICENTER":312.4625,"MEAN_ANOMALY":257.7273,"EPHEMERIS_TYPE":0,"CLASSIFICATION_TYPE":"U","NORAD_CAT_ID":41879,"ELEMENT_SET_NO":999,"REV_AT_EPOCH":3408,"BSTAR":0,"MEAN_MOTION_DOT":-2.01e-6,"MEAN_MOTION_DDOT":0},{"OBJECT_NAME":"FENGYUN 4A","OBJECT_ID":"2016-077A","EPOCH":"2026-04-05T06:29:14.206848","MEAN_MOTION":1.002785,"ECCENTRICITY":0.00078887,"INCLINATION":2.1383,"RA_OF_ASC_NODE":81.0216,"ARG_OF_PERICENTER":139.2503,"MEAN_ANOMALY":194.2574,"EPHEMERIS_TYPE":0,"CLASSIFICATION_TYPE":"U","NORAD_CAT_ID":41882,"ELEMENT_SET_NO":999,"REV_AT_EPOCH":3419,"BSTAR":0,"MEAN_MOTION_DOT":-3.55e-6,"MEAN_MOTION_DDOT":0},{"OBJECT_NAME":"ECHOSTAR 19","OBJECT_ID":"2016-079A","EPOCH":"2026-04-05T03:20:38.727168","MEAN_MOTION":1.0027118,"ECCENTRICITY":0.00014741,"INCLINATION":0.0156,"RA_OF_ASC_NODE":166.1906,"ARG_OF_PERICENTER":215.1702,"MEAN_ANOMALY":125.1255,"EPHEMERIS_TYPE":0,"CLASSIFICATION_TYPE":"U","NORAD_CAT_ID":41893,"ELEMENT_SET_NO":999,"REV_AT_EPOCH":3397,"BSTAR":0,"MEAN_MOTION_DOT":-1.37e-6,"MEAN_MOTION_DDOT":0},{"OBJECT_NAME":"JCSAT-110A (JCSAT-15)","OBJECT_ID":"2016-082A","EPOCH":"2026-04-05T00:18:53.369280","MEAN_MOTION":1.00270746,"ECCENTRICITY":7.392e-5,"INCLINATION":0.0181,"RA_OF_ASC_NODE":214.6299,"ARG_OF_PERICENTER":179.5373,"MEAN_ANOMALY":273.9402,"EPHEMERIS_TYPE":0,"CLASSIFICATION_TYPE":"U","NORAD_CAT_ID":41903,"ELEMENT_SET_NO":999,"REV_AT_EPOCH":3402,"BSTAR":0,"MEAN_MOTION_DOT":-3.5e-6,"MEAN_MOTION_DDOT":0}]
