TIANTONG-1 1            
1 41725U 16048A   26093.69721959 -.00000318  00000+0  00000+0 0  9997
2 41725   3.7083  42.7354 0006406  10.6542 131.0420  1.00272557 35526
JCSAT-16                
1 41729U 16050A   26095.27437668 -.00000250  00000+0  00000+0 0  9996
2 41729   0.0170 188.9531 0001210 209.3633  37.9768  1.00271296 35330
USA 270                 
1 41744U 16052A   26093.35524139  .00000029  00000+0  00000+0 0  9995
2 41744   4.0059  78.1231 0003830 309.4269 107.2690  1.00334013 27389
USA 271                 
1 41745U 16052B   26093.34527468 -.00000356  00000+0  00000+0 0  9997
2 41745   3.9783  78.1909 0007625 147.5825 215.0428  1.00250962 27173
INTELSAT 36 (IS-36)     
1 41747U 16053A   26095.11681901  .00000000  00000+0  00000+0 0  9995
2 41747   0.0095 237.1916 0001135  91.4784 335.3094  1.00267841 35229
INTELSAT 33E (IS-33E)   
1 41748U 16053B   26095.11811901 -.00000060  00000+0  00000+0 0  9998
2 41748   1.3860  85.2350 0023632 191.1577  34.5025  1.00161768 35517
INSAT-3DR               
1 41752U 16054A   26095.11785901 -.00000076  00000+0  00000+0 0  9991
2 41752   0.1295  86.7921 0012086 196.6004  26.4708  1.00273784 35089
GSAT-18                 
1 41793U 16060A   26095.11785901 -.00000076  00000+0  00000+0 0  9993
2 41793   0.0492  82.5162 0004654 328.8624 258.4329  1.00272968 34798
SKY MUSTER 2 (NBN1B)    
1 41794U 16060B   26095.27455001 -.00000243  00000+0  00000+0 0  9992
2 41794   0.0134 246.6171 0001565 129.2893  61.3146  1.00272245 34789
HIMAWARI-9              
1 41836U 16064A   26095.27368333 -.00000274  00000+0  00000+0 0  9998
2 41836   0.0486 108.0081 0001252 290.7832  34.0836  1.00271058 34477
SHIJIAN-17 (SJ-17)      
1 41838U 16065A   26094.81495648 -.00000180  00000+0  00000+0 0  9996
2 41838   5.5672  73.4719 0001543 340.2857  57.3515  0.99869998 34475
GOES 16                 
1 41866U 16071A   26095.15738959 -.00000090  00000+0  00000+0 0  9997
2 41866   0.1747  85.2956 0001826 247.2132 172.9164  1.00272286 34374
TIANLIAN 1-04           
1 41869U 16072A   26094.63913818  .00000032  00000+0  00000+0 0  9997
2 41869   0.6777  83.2511 0040013  93.8105  62.7584  1.00273660 34566
WGS F8 (USA 272)        
1 41879U 16075A   26095.22197291 -.00000201  00000+0  00000+0 0  9995
2 41879   0.0151 213.0621 0000684 312.4625 257.7273  1.00270829 34081
FENGYUN 4A              
1 41882U 16077A   26095.27030332 -.00000355  00000+0  00000+0 0  9998
2 41882   2.1383  81.0216 0007888 139.2503 194.2574  1.00278500 34196
ECHOSTAR 19             
1 41893U 16079A   26095.13933712 -.00000137  00000+0  00000+0 0  9999
2 41893   0.0156 166.1906 0001474 215.1702 125.1255  1.00271180 33975
JCSAT-110A (JCSAT-15)   
1 41903U 16082A   26095.01311770 -.00000350  00000+0  00000+0 0  9993
2 41903   0.0181 214.6299 0000739 179.5373 273.9402  1.00270746 34029
